[{"OBJECT_NAME":"STARLINK-36371","OBJECT_ID":"2026-037G","EPOCH":"2026-03-12T05:25:30.904896","MEAN_MOTION":15.82181241,"ECCENTRICITY":0.00022138,"INCLINATION":42.9973,"RA_OF_ASC_NODE":182.9687,"ARG_OF_PERICENTER":219.5654,"MEAN_ANOMALY":140.5056,"EPHEMERIS_TYPE":0,"CLASSIFICATION_TYPE":"U","NORAD_CAT_ID":67938,"ELEMENT_SET_NO":999,"REV_AT_EPOCH":365,"BSTAR":0.002202851,"MEAN_MOTION_DOT":0.00494609,"MEAN_MOTION_DDOT":0},{"OBJECT_NAME":"STARLINK-36246","OBJECT_ID":"2026-037H","EPOCH":"2026-03-12T06:55:20.361504","MEAN_MOTION":15.82299022,"ECCENTRICITY":0.00022375,"INCLINATION":42.9975,"RA_OF_ASC_NODE":182.576,"ARG_OF_PERICENTER":264.7278,"MEAN_ANOMALY":95.3339,"EPHEMERIS_TYPE":0,"CLASSIFICATION_TYPE":"U","NORAD_CAT_ID":67939,"ELEMENT_SET_NO":999,"REV_AT_EPOCH":366,"BSTAR":0.0029140822,"MEAN_MOTION_DOT":0.00671936,"MEAN_MOTION_DDOT":0},{"OBJECT_NAME":"STARLINK-36907","OBJECT_ID":"2026-037J","EPOCH":"2026-03-12T06:52:06.104064","MEAN_MOTION":15.82083717,"ECCENTRICITY":0.00015953,"INCLINATION":42.9978,"RA_OF_ASC_NODE":182.5565,"ARG_OF_PERICENTER":268.5281,"MEAN_ANOMALY":91.5408,"EPHEMERIS_TYPE":0,"CLASSIFICATION_TYPE":"U","NORAD_CAT_ID":67940,"ELEMENT_SET_NO":999,"REV_AT_EPOCH":366,"BSTAR":0.0015541528,"MEAN_MOTION_DOT":0.00341017,"MEAN_MOTION_DDOT":0},{"OBJECT_NAME":"STARLINK-36927","OBJECT_ID":"2026-037K","EPOCH":"2026-03-12T06:00:00.999648","MEAN_MOTION":15.82020189,"ECCENTRICITY":0.00014725,"INCLINATION":42.9981,"RA_OF_ASC_NODE":182.7572,"ARG_OF_PERICENTER":269.0169,"MEAN_ANOMALY":253.3299,"EPHEMERIS_TYPE":0,"CLASSIFICATION_TYPE":"U","NORAD_CAT_ID":67941,"ELEMENT_SET_NO":999,"REV_AT_EPOCH":361,"BSTAR":0.00026745535,"MEAN_MOTION_DOT":0.0005616,"MEAN_MOTION_DDOT":0},{"OBJECT_NAME":"STARLINK-36914","OBJECT_ID":"2026-037L","EPOCH":"2026-03-12T06:54:15.549408","MEAN_MOTION":15.82111131,"ECCENTRICITY":0.00016257,"INCLINATION":42.9974,"RA_OF_ASC_NODE":182.5694,"ARG_OF_PERICENTER":302.405,"MEAN_ANOMALY":57.6664,"EPHEMERIS_TYPE":0,"CLASSIFICATION_TYPE":"U","NORAD_CAT_ID":67942,"ELEMENT_SET_NO":999,"REV_AT_EPOCH":366,"BSTAR":0.002219822,"MEAN_MOTION_DOT":0.00496945,"MEAN_MOTION_DDOT":0},{"OBJECT_NAME":"STARLINK-36851","OBJECT_ID":"2026-037M","EPOCH":"2026-03-12T06:53:10.711392","MEAN_MOTION":15.8212768,"ECCENTRICITY":0.00012635,"INCLINATION":42.9975,"RA_OF_ASC_NODE":182.5634,"ARG_OF_PERICENTER":299.6302,"MEAN_ANOMALY":60.4444,"EPHEMERIS_TYPE":0,"CLASSIFICATION_TYPE":"U","NORAD_CAT_ID":67943,"ELEMENT_SET_NO":999,"REV_AT_EPOCH":366,"BSTAR":0.0014182919,"MEAN_MOTION_DOT":0.00310696,"MEAN_MOTION_DDOT":0},{"OBJECT_NAME":"STARLINK-36892","OBJECT_ID":"2026-037N","EPOCH":"2026-03-12T06:51:01.152864","MEAN_MOTION":15.82061922,"ECCENTRICITY":0.00014034,"INCLINATION":42.9977,"RA_OF_ASC_NODE":182.5514,"ARG_OF_PERICENTER":291.067,"MEAN_ANOMALY":69.0052,"EPHEMERIS_TYPE":0,"CLASSIFICATION_TYPE":"U","NORAD_CAT_ID":67944,"ELEMENT_SET_NO":999,"REV_AT_EPOCH":366,"BSTAR":0.0018912036,"MEAN_MOTION_DOT":0.00418455,"MEAN_MOTION_DDOT":0},{"OBJECT_NAME":"STARLINK-36908","OBJECT_ID":"2026-037P","EPOCH":"2026-03-12T06:00:00.999648","MEAN_MOTION":15.82005504,"ECCENTRICITY":0.00015452,"INCLINATION":42.998,"RA_OF_ASC_NODE":182.7465,"ARG_OF_PERICENTER":274.6723,"MEAN_ANOMALY":251.9707,"EPHEMERIS_TYPE":0,"CLASSIFICATION_TYPE":"U","NORAD_CAT_ID":67945,"ELEMENT_SET_NO":999,"REV_AT_EPOCH":361,"BSTAR":0.00026054184,"MEAN_MOTION_DOT":0.00054647,"MEAN_MOTION_DDOT":0},{"OBJECT_NAME":"STARLINK-36909","OBJECT_ID":"2026-037Q","EPOCH":"2026-03-12T06:00:00.999648","MEAN_MOTION":15.82043418,"ECCENTRICITY":0.00013578,"INCLINATION":42.9981,"RA_OF_ASC_NODE":182.7359,"ARG_OF_PERICENTER":277.9868,"MEAN_ANOMALY":252.9031,"EPHEMERIS_TYPE":0,"CLASSIFICATION_TYPE":"U","NORAD_CAT_ID":67946,"ELEMENT_SET_NO":999,"REV_AT_EPOCH":361,"BSTAR":-9.2122459e-5,"MEAN_MOTION_DOT":-0.0001991,"MEAN_MOTION_DDOT":0},{"OBJECT_NAME":"STARLINK-36920","OBJECT_ID":"2026-037R","EPOCH":"2026-03-12T06:00:00.999648","MEAN_MOTION":15.82007044,"ECCENTRICITY":0.0001555,"INCLINATION":42.9984,"RA_OF_ASC_NODE":182.7247,"ARG_OF_PERICENTER":276.2438,"MEAN_ANOMALY":258.9425,"EPHEMERIS_TYPE":0,"CLASSIFICATION_TYPE":"U","NORAD_CAT_ID":67947,"ELEMENT_SET_NO":999,"REV_AT_EPOCH":361,"BSTAR":0.00023155224,"MEAN_MOTION_DOT":0.00048476,"MEAN_MOTION_DDOT":0},{"OBJECT_NAME":"STARLINK-36873","OBJECT_ID":"2026-037S","EPOCH":"2026-03-12T06:00:00.999648","MEAN_MOTION":15.81961636,"ECCENTRICITY":0.00015946,"INCLINATION":42.9981,"RA_OF_ASC_NODE":182.7139,"ARG_OF_PERICENTER":257.9108,"MEAN_ANOMALY":281.5585,"EPHEMERIS_TYPE":0,"CLASSIFICATION_TYPE":"U","NORAD_CAT_ID":67948,"ELEMENT_SET_NO":999,"REV_AT_EPOCH":361,"BSTAR":0.00066942126,"MEAN_MOTION_DOT":0.001424,"MEAN_MOTION_DDOT":0},{"OBJECT_NAME":"STARLINK-36863","OBJECT_ID":"2026-037T","EPOCH":"2026-03-12T06:00:00.999648","MEAN_MOTION":15.81977486,"ECCENTRICITY":0.00017383,"INCLINATION":42.9984,"RA_OF_ASC_NODE":182.7035,"ARG_OF_PERICENTER":286.2989,"MEAN_ANOMALY":257.4348,"EPHEMERIS_TYPE":0,"CLASSIFICATION_TYPE":"U","NORAD_CAT_ID":67949,"ELEMENT_SET_NO":999,"REV_AT_EPOCH":361,"BSTAR":0.00051661567,"MEAN_MOTION_DOT":0.00109435,"MEAN_MOTION_DDOT":0},{"OBJECT_NAME":"STARLINK-36887","OBJECT_ID":"2026-037U","EPOCH":"2026-03-12T06:00:00.999648","MEAN_MOTION":15.81951793,"ECCENTRICITY":0.00016156,"INCLINATION":42.9985,"RA_OF_ASC_NODE":182.6925,"ARG_OF_PERICENTER":276.5439,"MEAN_ANOMALY":271.4735,"EPHEMERIS_TYPE":0,"CLASSIFICATION_TYPE":"U","NORAD_CAT_ID":67950,"ELEMENT_SET_NO":999,"REV_AT_EPOCH":361,"BSTAR":0.00068354209,"MEAN_MOTION_DOT":0.00145399,"MEAN_MOTION_DDOT":0},{"OBJECT_NAME":"STARLINK-36897","OBJECT_ID":"2026-037V","EPOCH":"2026-03-12T06:00:00.999648","MEAN_MOTION":15.81981538,"ECCENTRICITY":0.00015326,"INCLINATION":42.9987,"RA_OF_ASC_NODE":182.6819,"ARG_OF_PERICENTER":249.985,"MEAN_ANOMALY":302.2939,"EPHEMERIS_TYPE":0,"CLASSIFICATION_TYPE":"U","NORAD_CAT_ID":67951,"ELEMENT_SET_NO":999,"REV_AT_EPOCH":361,"BSTAR":0.00045439912,"MEAN_MOTION_DOT":0.00096058,"MEAN_MOTION_DDOT":0},{"OBJECT_NAME":"STARLINK-36381","OBJECT_ID":"2026-037W","EPOCH":"2026-03-12T06:00:00.999648","MEAN_MOTION":15.81970964,"ECCENTRICITY":0.00016112,"INCLINATION":42.9986,"RA_OF_ASC_NODE":182.6607,"ARG_OF_PERICENTER":285.7208,"MEAN_ANOMALY":275.1014,"EPHEMERIS_TYPE":0,"CLASSIFICATION_TYPE":"U","NORAD_CAT_ID":67952,"ELEMENT_SET_NO":999,"REV_AT_EPOCH":361,"BSTAR":0.00058125449,"MEAN_MOTION_DOT":0.00123355,"MEAN_MOTION_DDOT":0},{"OBJECT_NAME":"STARLINK-36824","OBJECT_ID":"2026-037X","EPOCH":"2026-03-12T06:00:00.999648","MEAN_MOTION":15.82003942,"ECCENTRICITY":0.00015415,"INCLINATION":42.9984,"RA_OF_ASC_NODE":182.6711,"ARG_OF_PERICENTER":247.9745,"MEAN_ANOMALY":308.5669,"EPHEMERIS_TYPE":0,"CLASSIFICATION_TYPE":"U","NORAD_CAT_ID":67953,"ELEMENT_SET_NO":999,"REV_AT_EPOCH":361,"BSTAR":0.00029990065,"MEAN_MOTION_DOT":0.0006304,"MEAN_MOTION_DDOT":0}]
