STARLINK-36371          
1 67938U 26037G   26071.22605214  .00494609  00000+0  22029-2 0  9997
2 67938  42.9973 182.9687 0002213 219.5654 140.5056 15.82181241  3658
STARLINK-36246          
1 67939U 26037H   26071.28843011  .00671936  00000+0  29141-2 0  9995
2 67939  42.9975 182.5760 0002237 264.7278  95.3339 15.82299022  3668
STARLINK-36907          
1 67940U 26037J   26071.28618176  .00341017  00000+0  15542-2 0  9993
2 67940  42.9978 182.5565 0001595 268.5281  91.5408 15.82083717  3665
STARLINK-36927          
1 67941U 26037K   26071.25001157  .00056160  00000+0  26746-3 0  9997
2 67941  42.9981 182.7572 0001472 269.0169 253.3299 15.82020189  3610
STARLINK-36914          
1 67942U 26037L   26071.28767997  .00496945  00000+0  22198-2 0  9997
2 67942  42.9974 182.5694 0001625 302.4050  57.6664 15.82111131  3661
STARLINK-36851          
1 67943U 26037M   26071.28692953  .00310696  00000+0  14183-2 0  9990
2 67943  42.9975 182.5634 0001263 299.6302  60.4444 15.82127680  3666
STARLINK-36892          
1 67944U 26037N   26071.28543001  .00418455  00000+0  18912-2 0  9996
2 67944  42.9977 182.5514 0001403 291.0670  69.0052 15.82061922  3662
STARLINK-36908          
1 67945U 26037P   26071.25001157  .00054647  00000+0  26054-3 0  9991
2 67945  42.9980 182.7465 0001545 274.6723 251.9707 15.82005504  3615
STARLINK-36909          
1 67946U 26037Q   26071.25001157 -.00019910  00000+0 -92122-4 0  9998
2 67946  42.9981 182.7359 0001357 277.9868 252.9031 15.82043418  3613
STARLINK-36920          
1 67947U 26037R   26071.25001157  .00048476  00000+0  23155-3 0  9995
2 67947  42.9984 182.7247 0001555 276.2438 258.9425 15.82007044  3616
STARLINK-36873          
1 67948U 26037S   26071.25001157  .00142400  00000+0  66942-3 0  9999
2 67948  42.9981 182.7139 0001594 257.9108 281.5585 15.81961636  3611
STARLINK-36863          
1 67949U 26037T   26071.25001157  .00109435  00000+0  51662-3 0  9994
2 67949  42.9984 182.7035 0001738 286.2989 257.4348 15.81977486  3611
STARLINK-36887          
1 67950U 26037U   26071.25001157  .00145399  00000+0  68354-3 0  9991
2 67950  42.9985 182.6925 0001615 276.5439 271.4735 15.81951793  3616
STARLINK-36897          
1 67951U 26037V   26071.25001157  .00096058  00000+0  45440-3 0  9990
2 67951  42.9987 182.6819 0001532 249.9850 302.2939 15.81981538  3619
STARLINK-36381          
1 67952U 26037W   26071.25001157  .00123355  00000+0  58125-3 0  9996
2 67952  42.9986 182.6607 0001611 285.7208 275.1014 15.81970964  3610
STARLINK-36824          
1 67953U 26037X   26071.25001157  .00063040  00000+0  29990-3 0  9999
2 67953  42.9984 182.6711 0001541 247.9745 308.5669 15.82003942  3614
